start=new Date('2022-02-05T00:00:00.000Z').valueOf();
sats=[{"ARG_OF_PERICENTER":"35.1576","TIME_SYSTEM":"UTC","OBJECT_TYPE":"PAYLOAD","CLASSIFICATION_TYPE":"U","EPOCH":"2022-02-04T14:00:01.999872","MEAN_ANOMALY":"194.9486","OBJECT_NAME":"STARLINK-3113","RCS_SIZE":"LARGE","ELEMENT_SET_NO":"999","BSTAR":"-0.00410210000000","EPHEMERIS_TYPE":"0","ECCENTRICITY":"0.00027140","MEAN_MOTION_DDOT":"0.0000000000000","LAUNCH_DATE":"2021-12-02","PERIOD":"95.435","PERIAPSIS":"537.759","TLE_LINE1":"1 49735U 21115M   22035.58335648 -.00065053  00000-0 -41021-2 0  9993","COUNTRY_CODE":"US","OBJECT_ID":"2021-115M","REF_FRAME":"TEME","INCLINATION":"53.2073","CENTER_NAME":"EARTH","MEAN_ELEMENT_THEORY":"SGP4","GP_ID":"195302153","SEMIMAJOR_AXIS":"6917.771","NORAD_CAT_ID":"49735","MEAN_MOTION_DOT":"-0.00065053","DECAY_DATE":null,"RA_OF_ASC_NODE":"26.4729","REV_AT_EPOCH":"359","TLE_LINE2":"2 49735  53.2073  26.4729 0002714  35.1576 194.9486 15.08875749  3593","FILE":"3291889","MEAN_MOTION":"15.08875749","APOAPSIS":"541.514","SITE":"AFETR"},{"MEAN_MOTION_DOT":"-0.00660473","NORAD_CAT_ID":"49736","SEMIMAJOR_AXIS":"6850.177","GP_ID":"195302398","MEAN_ELEMENT_THEORY":"SGP4","DECAY_DATE":null,"APOAPSIS":"472.974","FILE":"3291889","MEAN_MOTION":"15.31263959","TLE_LINE2":"2 49736  53.2173  17.6436 0001360  71.2714 106.2047 15.31263959  3648","REV_AT_EPOCH":"364","RA_OF_ASC_NODE":"17.6436","SITE":"AFETR","PERIAPSIS":"471.110","PERIOD":"94.040","LAUNCH_DATE":"2021-12-02","TLE_LINE1":"1 49736U 21115N   22035.58335648 -.00660473  00000-0 -23228-1 0  9999","REF_FRAME":"TEME","OBJECT_ID":"2021-115N","COUNTRY_CODE":"US","CENTER_NAME":"EARTH","INCLINATION":"53.2173","RCS_SIZE":"LARGE","ELEMENT_SET_NO":"999","OBJECT_NAME":"STARLINK-3148","EPHEMERIS_TYPE":"0","BSTAR":"-0.02322800000000","ECCENTRICITY":"0.00013600","MEAN_MOTION_DDOT":"0.0000000000000","ARG_OF_PERICENTER":"71.2714","TIME_SYSTEM":"UTC","CLASSIFICATION_TYPE":"U","OBJECT_TYPE":"PAYLOAD","EPOCH":"2022-02-04T14:00:01.999872","MEAN_ANOMALY":"106.2047"},{"MEAN_MOTION_DDOT":"0.0000000000000","ECCENTRICITY":"0.00013440","EPHEMERIS_TYPE":"0","BSTAR":"-0.02307900000000","RCS_SIZE":"LARGE","ELEMENT_SET_NO":"999","OBJECT_NAME":"STARLINK-3225","MEAN_ANOMALY":"110.5875","CLASSIFICATION_TYPE":"U","OBJECT_TYPE":"PAYLOAD","EPOCH":"2022-02-04T14:00:01.999872","ARG_OF_PERICENTER":"74.1334","TIME_SYSTEM":"UTC","SITE":"AFETR","FILE":"3291889","MEAN_MOTION":"15.31484194","APOAPSIS":"472.306","RA_OF_ASC_NODE":"17.6408","REV_AT_EPOCH":"364","TLE_LINE2":"2 49737  53.2173  17.6408 0001344  74.1334 110.5875 15.31484194  3643","DECAY_DATE":null,"NORAD_CAT_ID":"49737","SEMIMAJOR_AXIS":"6849.520","MEAN_MOTION_DOT":"-0.00660760","GP_ID":"195301154","MEAN_ELEMENT_THEORY":"SGP4","INCLINATION":"53.2173","CENTER_NAME":"EARTH","OBJECT_ID":"2021-115P","REF_FRAME":"TEME","COUNTRY_CODE":"US","TLE_LINE1":"1 49737U 21115P   22035.58335648 -.00660760  00000-0 -23079-1 0  9993","PERIAPSIS":"470.465","LAUNCH_DATE":"2021-12-02","PERIOD":"94.026"},{"SITE":"AFETR","FILE":"3292132","MEAN_MOTION":"15.30564465","APOAPSIS":"475.136","RA_OF_ASC_NODE":"16.0959","TLE_LINE2":"2 49738  53.2173  16.0959 0001470  64.2440 144.5106 15.30564465 11110","REV_AT_EPOCH":"1111","DECAY_DATE":null,"NORAD_CAT_ID":"49738","SEMIMAJOR_AXIS":"6852.264","MEAN_MOTION_DOT":"-0.00659900","MEAN_ELEMENT_THEORY":"SGP4","GP_ID":"195309171","INCLINATION":"53.2173","CENTER_NAME":"EARTH","OBJECT_ID":"2021-115Q","REF_FRAME":"TEME","COUNTRY_CODE":"US","TLE_LINE1":"1 49738U 21115Q   22035.91667824 -.00659900  00000-0 -23719-1 0  9990","PERIAPSIS":"473.122","LAUNCH_DATE":"2021-12-02","PERIOD":"94.083","MEAN_MOTION_DDOT":"0.0000000000000","ECCENTRICITY":"0.00014700","EPHEMERIS_TYPE":"0","BSTAR":"-0.02371900000000","ELEMENT_SET_NO":"999","RCS_SIZE":"LARGE","OBJECT_NAME":"STARLINK-3143","MEAN_ANOMALY":"144.5106","OBJECT_TYPE":"PAYLOAD","CLASSIFICATION_TYPE":"U","EPOCH":"2022-02-04T22:00:00.999936","ARG_OF_PERICENTER":"64.2440","TIME_SYSTEM":"UTC"},{"DECAY_DATE":null,"SEMIMAJOR_AXIS":"6917.775","NORAD_CAT_ID":"49739","MEAN_MOTION_DOT":"-0.00050755","GP_ID":"195301654","MEAN_ELEMENT_THEORY":"SGP4","SITE":"AFETR","MEAN_MOTION":"15.08874491","FILE":"3291889","APOAPSIS":"541.531","RA_OF_ASC_NODE":"26.5125","TLE_LINE2":"2 49739  53.1980  26.5125 0002734  36.5972 153.4520 15.08874491  3593","REV_AT_EPOCH":"359","TLE_LINE1":"1 49739U 21115R   22035.58335648 -.00050755  00000-0 -31902-2 0  9997","PERIAPSIS":"537.749","LAUNCH_DATE":"2021-12-02","PERIOD":"95.435","INCLINATION":"53.1980","CENTER_NAME":"EARTH","OBJECT_ID":"2021-115R","REF_FRAME":"TEME","COUNTRY_CODE":"US","EPHEMERIS_TYPE":"0","BSTAR":"-0.00319020000000","OBJECT_NAME":"STARLINK-3155","RCS_SIZE":"LARGE","ELEMENT_SET_NO":"999","MEAN_MOTION_DDOT":"0.0000000000000","ECCENTRICITY":"0.00027340","TIME_SYSTEM":"UTC","ARG_OF_PERICENTER":"36.5972","MEAN_ANOMALY":"153.4520","OBJECT_TYPE":"PAYLOAD","CLASSIFICATION_TYPE":"U","EPOCH":"2022-02-04T14:00:01.999872"},{"SITE":"AFETR","RA_OF_ASC_NODE":"17.6461","TLE_LINE2":"2 49740  53.2172  17.6461 0001363  66.4479  83.6615 15.30331695  3648","REV_AT_EPOCH":"364","FILE":"3291889","MEAN_MOTION":"15.30331695","APOAPSIS":"475.758","DECAY_DATE":null,"MEAN_ELEMENT_THEORY":"SGP4","GP_ID":"195301899","NORAD_CAT_ID":"49740","SEMIMAJOR_AXIS":"6852.959","MEAN_MOTION_DOT":"-0.00659740","INCLINATION":"53.2172","CENTER_NAME":"EARTH","COUNTRY_CODE":"US","OBJECT_ID":"2021-115S","REF_FRAME":"TEME","TLE_LINE1":"1 49740U 21115S   22035.58335648 -.00659740  00000-0 -23886-1 0  9999","LAUNCH_DATE":"2021-12-02","PERIOD":"94.097","PERIAPSIS":"473.890","MEAN_MOTION_DDOT":"0.0000000000000","ECCENTRICITY":"0.00013630","BSTAR":"-0.02388600000000","EPHEMERIS_TYPE":"0","ELEMENT_SET_NO":"999","RCS_SIZE":"LARGE","OBJECT_NAME":"STARLINK-3226","MEAN_ANOMALY":"83.6615","OBJECT_TYPE":"PAYLOAD","EPOCH":"2022-02-04T14:00:01.999872","CLASSIFICATION_TYPE":"U","TIME_SYSTEM":"UTC","ARG_OF_PERICENTER":"66.4479"},{"CENTER_NAME":"EARTH","INCLINATION":"53.2173","REF_FRAME":"TEME","OBJECT_ID":"2021-115T","COUNTRY_CODE":"US","TLE_LINE1":"1 49741U 21115T   22035.91667824 -.00660231  00000-0 -23905-1 0  9990","PERIAPSIS":"473.871","PERIOD":"94.097","LAUNCH_DATE":"2021-12-02","SITE":"AFETR","APOAPSIS":"475.777","FILE":"3292080","MEAN_MOTION":"15.30331676","REV_AT_EPOCH":"1111","TLE_LINE2":"2 49741  53.2173  16.0967 0001391  73.7064 127.9965 15.30331676 11116","RA_OF_ASC_NODE":"16.0967","DECAY_DATE":null,"MEAN_MOTION_DOT":"-0.00660231","SEMIMAJOR_AXIS":"6852.959","NORAD_CAT_ID":"49741","MEAN_ELEMENT_THEORY":"SGP4","GP_ID":"195308002","MEAN_ANOMALY":"127.9965","OBJECT_TYPE":"PAYLOAD","CLASSIFICATION_TYPE":"U","EPOCH":"2022-02-04T22:00:00.999936","TIME_SYSTEM":"UTC","ARG_OF_PERICENTER":"73.7064","MEAN_MOTION_DDOT":"0.0000000000000","ECCENTRICITY":"0.00013910","EPHEMERIS_TYPE":"0","BSTAR":"-0.02390500000000","RCS_SIZE":"LARGE","ELEMENT_SET_NO":"999","OBJECT_NAME":"STARLINK-3244"},{"MEAN_MOTION_DDOT":"0.0000000000000","ECCENTRICITY":"0.00013110","BSTAR":"-0.02422500000000","EPHEMERIS_TYPE":"0","ELEMENT_SET_NO":"999","RCS_SIZE":"LARGE","OBJECT_NAME":"STARLINK-3202","MEAN_ANOMALY":"66.4117","OBJECT_TYPE":"PAYLOAD","EPOCH":"2022-02-04T14:00:01.999872","CLASSIFICATION_TYPE":"U","TIME_SYSTEM":"UTC","ARG_OF_PERICENTER":"69.1777","SITE":"AFETR","RA_OF_ASC_NODE":"17.6456","TLE_LINE2":"2 49742  53.2172  17.6456 0001311  69.1777  66.4117 15.29865594  3642","REV_AT_EPOCH":"364","FILE":"3291889","MEAN_MOTION":"15.29865594","APOAPSIS":"477.114","DECAY_DATE":null,"MEAN_ELEMENT_THEORY":"SGP4","GP_ID":"195300904","NORAD_CAT_ID":"49742","SEMIMAJOR_AXIS":"6854.351","MEAN_MOTION_DOT":"-0.00659484","INCLINATION":"53.2172","CENTER_NAME":"EARTH","COUNTRY_CODE":"US","OBJECT_ID":"2021-115U","REF_FRAME":"TEME","TLE_LINE1":"1 49742U 21115U   22035.58335648 -.00659484  00000-0 -24225-1 0  9994","LAUNCH_DATE":"2021-12-02","PERIOD":"94.126","PERIAPSIS":"475.317"},{"ARG_OF_PERICENTER":"74.3599","TIME_SYSTEM":"UTC","OBJECT_TYPE":"PAYLOAD","CLASSIFICATION_TYPE":"U","EPOCH":"2022-02-04T14:00:01.999872","MEAN_ANOMALY":"82.8004","OBJECT_NAME":"STARLINK-3239","RCS_SIZE":"LARGE","ELEMENT_SET_NO":"999","EPHEMERIS_TYPE":"0","BSTAR":"-0.02371900000000","ECCENTRICITY":"0.00013260","MEAN_MOTION_DDOT":"0.0000000000000","PERIAPSIS":"473.220","LAUNCH_DATE":"2021-12-02","PERIOD":"94.083","TLE_LINE1":"1 49743U 21115V   22035.58335648 -.00659889  00000-0 -23719-1 0  9991","OBJECT_ID":"2021-115V","REF_FRAME":"TEME","COUNTRY_CODE":"US","INCLINATION":"53.2172","CENTER_NAME":"EARTH","SEMIMAJOR_AXIS":"6852.263","NORAD_CAT_ID":"49743","MEAN_MOTION_DOT":"-0.00659889","GP_ID":"195302154","MEAN_ELEMENT_THEORY":"SGP4","DECAY_DATE":null,"FILE":"3291889","MEAN_MOTION":"15.30564732","APOAPSIS":"475.037","RA_OF_ASC_NODE":"17.6460","REV_AT_EPOCH":"364","TLE_LINE2":"2 49743  53.2172  17.6460 0001326  74.3599  82.8004 15.30564732  3643","SITE":"AFETR"},{"INCLINATION":"53.2171","CENTER_NAME":"EARTH","COUNTRY_CODE":"US","OBJECT_ID":"2021-115W","REF_FRAME":"TEME","TLE_LINE1":"1 49744U 21115W   22035.58335648 -.00659235  00000-0 -24568-1 0  9990","LAUNCH_DATE":"2021-12-02","PERIOD":"94.155","PERIAPSIS":"476.743","SITE":"AFETR","RA_OF_ASC_NODE":"17.6438","TLE_LINE2":"2 49744  53.2171  17.6438 0001262  74.4974  46.0142 15.29399522  3641","REV_AT_EPOCH":"364","FILE":"3291889","MEAN_MOTION":"15.29399522","APOAPSIS":"478.473","DECAY_DATE":null,"MEAN_ELEMENT_THEORY":"SGP4","GP_ID":"195302399","NORAD_CAT_ID":"49744","SEMIMAJOR_AXIS":"6855.743","MEAN_MOTION_DOT":"-0.00659235","MEAN_ANOMALY":"46.0142","CLASSIFICATION_TYPE":"U","OBJECT_TYPE":"PAYLOAD","EPOCH":"2022-02-04T14:00:01.999872","TIME_SYSTEM":"UTC","ARG_OF_PERICENTER":"74.4974","MEAN_MOTION_DDOT":"0.0000000000000","ECCENTRICITY":"0.00012620","BSTAR":"-0.02456800000000","EPHEMERIS_TYPE":"0","ELEMENT_SET_NO":"999","RCS_SIZE":"LARGE","OBJECT_NAME":"STARLINK-3231"}];
